GOES 4                  
1 11964U 80074A   24130.42497014 -.00000099  00000+0  00000+0 0  9998
2 11964   9.6609 309.0036 0033305  92.5091 256.3599  0.99228565119808
